{
  "type": "FeatureCollection",
  "features": [
    {
      "type": "Feature",
      "properties": {
        "norad_id": 36180,
        "name": "FENGYUN 1C DEB",
        "group": "fengyun-1c-debris",
        "lat": 81.5112605680019,
        "lon": -26.607916545462796,
        "alt_km": 796.8838833415348,
        "timestamp": "2025-12-21T14:40:48.204739+00:00",
        "meta_object_name": "FENGYUN 1C DEB",
        "meta_object_id": "1999-025DTD",
        "meta_epoch": "2025-12-05T21:21:22.276224",
        "meta_mean_motion": 14.20680074,
        "meta_eccentricity": 0.02106275,
        "meta_inclination": 98.4572,
        "meta_ra_of_asc_node": 43.7979,
        "meta_arg_of_pericenter": 50.8055,
        "meta_mean_anomaly": 311.1621,
        "meta_ephemeris_type": 0,
        "meta_classification_type": "U",
        "meta_norad_cat_id": 36180,
        "meta_element_set_no": 999,
        "meta_rev_at_epoch": 70486,
        "meta_bstar": 0.00091841135,
        "meta_mean_motion_dot": 2.432e-05,
        "meta_mean_motion_ddot": 0,
        "tle_line1": "1 36180U 99025DTD 25339.88984116  .00002432  00000+0  91841-3 0  9996",
        "tle_line2": "2 36180  98.4572  43.7979 0210627  50.8055 311.1621 14.20680074704867"
      },
      "geometry": {
        "type": "Point",
        "coordinates": [
          -26.607916545462796,
          81.5112605680019
        ]
      }
    },
    {
      "type": "Feature",
      "properties": {
        "norad_id": 36182,
        "name": "FENGYUN 1C DEB",
        "group": "fengyun-1c-debris",
        "lat": 51.69334914063062,
        "lon": -88.06767231804122,
        "alt_km": 755.0242904266515,
        "timestamp": "2025-12-21T14:40:48.204749+00:00",
        "meta_object_name": "FENGYUN 1C DEB",
        "meta_object_id": "1999-025DTF",
        "meta_epoch": "2025-12-18T12:47:41.466912",
        "meta_mean_motion": 14.34767682,
        "meta_eccentricity": 0.00222454,
        "meta_inclination": 99.0894,
        "meta_ra_of_asc_node": 280.3871,
        "meta_arg_of_pericenter": 59.8208,
        "meta_mean_anomaly": 300.5175,
        "meta_ephemeris_type": 0,
        "meta_classification_type": "U",
        "meta_norad_cat_id": 36182,
        "meta_element_set_no": 999,
        "meta_rev_at_epoch": 88040,
        "meta_bstar": 0.0011472188,
        "meta_mean_motion_dot": 3.214e-05,
        "meta_mean_motion_ddot": 0,
        "tle_line1": "1 36182U 99025DTF 25352.53311883  .00003214  00000+0  11472-2 0  9990",
        "tle_line2": "2 36182  99.0894 280.3871 0022245  59.8208 300.5175 14.34767682880406"
      },
      "geometry": {
        "type": "Point",
        "coordinates": [
          -88.06767231804122,
          51.69334914063062
        ]
      }
    },
    {
      "type": "Feature",
      "properties": {
        "norad_id": 36186,
        "name": "FENGYUN 1C DEB",
        "group": "fengyun-1c-debris",
        "lat": -72.11977187389535,
        "lon": 11.125573178987556,
        "alt_km": 526.032511813245,
        "timestamp": "2025-12-21T14:40:48.204760+00:00",
        "meta_object_name": "FENGYUN 1C DEB",
        "meta_object_id": "1999-025DTK",
        "meta_epoch": "2025-12-15T21:11:23.031744",
        "meta_mean_motion": 15.12863238,
        "meta_eccentricity": 0.00117449,
        "meta_inclination": 98.9868,
        "meta_ra_of_asc_node": 213.7545,
        "meta_arg_of_pericenter": 332.6772,
        "meta_mean_anomaly": 45.2682,
        "meta_ephemeris_type": 0,
        "meta_classification_type": "U",
        "meta_norad_cat_id": 36186,
        "meta_element_set_no": 999,
        "meta_rev_at_epoch": 61618,
        "meta_bstar": 0.0071053274,
        "meta_mean_motion_dot": 0.00127217,
        "meta_mean_motion_ddot": 0,
        "tle_line1": "1 36186U 99025DTK 25349.88290546  .00127217  00000+0  71053-2 0  9991",
        "tle_line2": "2 36186  98.9868 213.7545 0011744 332.6772  45.2682 15.12863238616186"
      },
      "geometry": {
        "type": "Point",
        "coordinates": [
          11.125573178987556,
          -72.11977187389535
        ]
      }
    },
    {
      "type": "Feature",
      "properties": {
        "norad_id": 36188,
        "name": "FENGYUN 1C DEB",
        "group": "fengyun-1c-debris",
        "lat": -46.413922459819915,
        "lon": -92.77498546966862,
        "alt_km": 675.374774076332,
        "timestamp": "2025-12-21T14:40:48.204770+00:00",
        "meta_object_name": "FENGYUN 1C DEB",
        "meta_object_id": "1999-025DTM",
        "meta_epoch": "2025-12-16T00:29:05.104608",
        "meta_mean_motion": 14.60761478,
        "meta_eccentricity": 0.00478894,
        "meta_inclination": 98.5849,
        "meta_ra_of_asc_node": 90.5626,
        "meta_arg_of_pericenter": 294.3883,
        "meta_mean_anomaly": 65.2322,
        "meta_ephemeris_type": 0,
        "meta_classification_type": "U",
        "meta_norad_cat_id": 36188,
        "meta_element_set_no": 999,
        "meta_rev_at_epoch": 88100,
        "meta_bstar": 0.0017582447,
        "meta_mean_motion_dot": 8.674e-05,
        "meta_mean_motion_ddot": 0,
        "tle_line1": "1 36188U 99025DTM 25350.02019797  .00008674  00000+0  17582-2 0  9990",
        "tle_line2": "2 36188  98.5849  90.5626 0047889 294.3883  65.2322 14.60761478881003"
      },
      "geometry": {
        "type": "Point",
        "coordinates": [
          -92.77498546966862,
          -46.413922459819915
        ]
      }
    },
    {
      "type": "Feature",
      "properties": {
        "norad_id": 36198,
        "name": "FENGYUN 1C DEB",
        "group": "fengyun-1c-debris",
        "lat": 61.70519970802697,
        "lon": 8.190819541287176,
        "alt_km": 797.9865511885446,
        "timestamp": "2025-12-21T14:40:48.204780+00:00",
        "meta_object_name": "FENGYUN 1C DEB",
        "meta_object_id": "1999-025DTX",
        "meta_epoch": "2025-12-17T13:10:00.796512",
        "meta_mean_motion": 14.07925497,
        "meta_eccentricity": 0.00967795,
        "meta_inclination": 98.6216,
        "meta_ra_of_asc_node": 20.6795,
        "meta_arg_of_pericenter": 101.8825,
        "meta_mean_anomaly": 259.3217,
        "meta_ephemeris_type": 0,
        "meta_classification_type": "U",
        "meta_norad_cat_id": 36198,
        "meta_element_set_no": 999,
        "meta_rev_at_epoch": 63655,
        "meta_bstar": 0.0010670002,
        "meta_mean_motion_dot": 1.851e-05,
        "meta_mean_motion_ddot": 0,
        "tle_line1": "1 36198U 99025DTX 25351.54862033  .00001851  00000+0  10670-2 0  9999",
        "tle_line2": "2 36198  98.6216  20.6795 0096779 101.8825 259.3217 14.07925497636555"
      },
      "geometry": {
        "type": "Point",
        "coordinates": [
          8.190819541287176,
          61.70519970802697
        ]
      }
    },
    {
      "type": "Feature",
      "properties": {
        "norad_id": 36199,
        "name": "FENGYUN 1C DEB",
        "group": "fengyun-1c-debris",
        "lat": -65.34846766111978,
        "lon": 177.80457768797848,
        "alt_km": 860.1006080668067,
        "timestamp": "2025-12-21T14:40:48.204790+00:00",
        "meta_object_name": "FENGYUN 1C DEB",
        "meta_object_id": "1999-025DTY",
        "meta_epoch": "2025-12-20T20:44:03.107040",
        "meta_mean_motion": 14.29660404,
        "meta_eccentricity": 0.0092625,
        "meta_inclination": 98.2888,
        "meta_ra_of_asc_node": 15.6138,
        "meta_arg_of_pericenter": 43.7189,
        "meta_mean_anomaly": 317.1282,
        "meta_ephemeris_type": 0,
        "meta_classification_type": "U",
        "meta_norad_cat_id": 36199,
        "meta_element_set_no": 999,
        "meta_rev_at_epoch": 65096,
        "meta_bstar": 0.00019303,
        "meta_mean_motion_dot": 4.77e-06,
        "meta_mean_motion_ddot": 0,
        "tle_line1": "1 36199U 99025DTY 25354.86392485  .00000477  00000+0  19303-3 0  9993",
        "tle_line2": "2 36199  98.2888  15.6138 0092625  43.7189 317.1282 14.29660404650969"
      },
      "geometry": {
        "type": "Point",
        "coordinates": [
          177.80457768797848,
          -65.34846766111978
        ]
      }
    },
    {
      "type": "Feature",
      "properties": {
        "norad_id": 36200,
        "name": "FENGYUN 1C DEB",
        "group": "fengyun-1c-debris",
        "lat": -63.29291626784796,
        "lon": -128.48412794051785,
        "alt_km": 705.6689870433866,
        "timestamp": "2025-12-21T14:40:48.204800+00:00",
        "meta_object_name": "FENGYUN 1C DEB",
        "meta_object_id": "1999-025DTZ",
        "meta_epoch": "2025-12-18T11:29:22.430112",
        "meta_mean_motion": 14.58878702,
        "meta_eccentricity": 0.0033466,
        "meta_inclination": 99.3866,
        "meta_ra_of_asc_node": 67.1749,
        "meta_arg_of_pericenter": 349.3175,
        "meta_mean_anomaly": 10.7306,
        "meta_ephemeris_type": 0,
        "meta_classification_type": "U",
        "meta_norad_cat_id": 36200,
        "meta_element_set_no": 999,
        "meta_rev_at_epoch": 73444,
        "meta_bstar": 0.0030254,
        "meta_mean_motion_dot": 0.00014247,
        "meta_mean_motion_ddot": 0,
        "tle_line1": "1 36200U 99025DTZ 25352.47873183  .00014247  00000+0  30254-2 0  9997",
        "tle_line2": "2 36200  99.3866  67.1749 0033466 349.3175  10.7306 14.58878702734441"
      },
      "geometry": {
        "type": "Point",
        "coordinates": [
          -128.48412794051785,
          -63.29291626784796
        ]
      }
    }
  ]
}